{
  "norad_id": 65343,
  "name": "STARLINK-34838",
  "history": [
    {
      "epoch": "2026-03-28T18:33:18.784512Z",
      "apogee_km": 476.0452004559693,
      "perigee_km": 474.323783163657,
      "latitude_deg": -2.263466991405148e-05,
      "longitude_deg": 13.928042736321988,
      "height_km": 476.2383551232297,
      "semi_major_axis_km": 6853.321491809813,
      "eccentricity": 0.00012559,
      "inclination_deg": 53.1585,
      "raan_deg": 118.4451,
      "arg_perigee_deg": 100.4354,
      "mean_anomaly_deg": 259.6788,
      "mean_motion_rev_day": 15.30210241
    },
    {
      "epoch": "2026-03-29T02:23:34.757376Z",
      "apogee_km": 476.38167718120894,
      "perigee_km": 473.97068160469917,
      "latitude_deg": 5.5243555767717186e-05,
      "longitude_deg": -105.47693866249885,
      "height_km": 476.3665224680137,
      "semi_major_axis_km": 6853.313179392954,
      "eccentricity": 0.0001759,
      "inclination_deg": 53.159,
      "raan_deg": 116.9285,
      "arg_perigee_deg": 104.0666,
      "mean_anomaly_deg": 256.0531,
      "mean_motion_rev_day": 15.30213025
    },
    {
      "epoch": "2026-03-30T01:54:22.790880Z",
      "apogee_km": 475.9889868863411,
      "perigee_km": 474.3565285020577,
      "latitude_deg": 1.569868421590429e-05,
      "longitude_deg": -103.6979658454163,
      "height_km": 475.8452780361693,
      "semi_major_axis_km": 6853.309757694199,
      "eccentricity": 0.0001191,
      "inclination_deg": 53.1577,
      "raan_deg": 112.3733,
      "arg_perigee_deg": 73.9633,
      "mean_anomaly_deg": 286.1499,
      "mean_motion_rev_day": 15.30214171
    }
  ]
}